0 GALAXY 19
1 33376U 08045A   13282.60117544 -.00000153  00000-0  00000+0 0  9879
2 33376 000.0097 189.1305 0002721 000.7291 307.9498 01.00270551 18503
0 GALAXY 19
1 33376U 08045A   13285.57888561 -.00000162  00000-0  00000+0 0  9883
2 33376 000.0106 175.7359 0003021 012.3972 304.5933 01.00271533 18534
0 GALAXY 19
1 33376U 08045A   13288.54229017 -.00000164  00000-0  00000+0 0  9891
2 33376 000.0116 194.1896 0003015 001.6348 286.6381 01.00270915 18560
0 GALAXY 19
1 33376U 08045A   13292.48025718 -.00000157  00000-0  00000+0 0  9905
2 33376 000.0107 210.0001 0003356 354.6065 259.4069 01.00272607 18607
0 GALAXY 19
1 33376U 08045A   13293.59281124 -.00000155  00000-0  00000+0 0  9912
2 33376 000.0087 204.2834 0003273 002.3364 299.0089 01.00272256 18613
0 GALAXY 19
1 33376U 08045A   13295.09062940 -.00000153  00000-0  00000+0 0  9921
2 33376 000.0075 201.4992 0003267 006.4319 118.3916 01.00272314 18620
0 GALAXY 19
1 33376U 08045A   13296.19697898 -.00000151  00000-0  00000+0 0  9938
2 33376 000.0063 195.6637 0003278 013.3182 156.7197 01.00272326 18646
